[{"OBJECT_NAME":"YAOGAN-42 02","OBJECT_ID":"2024-075A","EPOCH":"2026-03-09T17:35:13.119936","MEAN_MOTION":15.23143853,"ECCENTRICITY":0.00051467,"INCLINATION":34.9989,"RA_OF_ASC_NODE":175.0593,"ARG_OF_PERICENTER":346.5324,"MEAN_ANOMALY":13.5253,"EPHEMERIS_TYPE":0,"CLASSIFICATION_TYPE":"U","NORAD_CAT_ID":59557,"ELEMENT_SET_NO":999,"REV_AT_EPOCH":10491,"BSTAR":0.00064504251,"MEAN_MOTION_DOT":0.00015606,"MEAN_MOTION_DDOT":0},{"OBJECT_NAME":"CZ-4C DEB","OBJECT_ID":"2007-055C","EPOCH":"2026-03-09T22:46:15.652128","MEAN_MOTION":15.30523578,"ECCENTRICITY":0.00469709,"INCLINATION":97.8668,"RA_OF_ASC_NODE":247.2248,"ARG_OF_PERICENTER":277.363,"MEAN_ANOMALY":82.2273,"EPHEMERIS_TYPE":0,"CLASSIFICATION_TYPE":"U","NORAD_CAT_ID":35248,"ELEMENT_SET_NO":999,"REV_AT_EPOCH":97353,"BSTAR":0.0018809895,"MEAN_MOTION_DOT":0.000577,"MEAN_MOTION_DDOT":0}]
